{
    "links": {
        "self": "http://www.neowsapp.com/rest/v1/neo/3363724?api_key=iIulBulltgU6a56xZRHN4H3l9WmuAYTsLGpBGhQ2"
    },
    "id": "3363724",
    "neo_reference_id": "3363724",
    "name": "(2006 YA)",
    "designation": "2006 YA",
    "nasa_jpl_url": "http://ssd.jpl.nasa.gov/sbdb.cgi?sstr=3363724",
    "absolute_magnitude_h": 23.1,
    "estimated_diameter": {
        "kilometers": {
            "estimated_diameter_min": 0.063760979,
            "estimated_diameter_max": 0.1425738833
        },
        "meters": {
            "estimated_diameter_min": 63.7609789875,
            "estimated_diameter_max": 142.5738833281
        },
        "miles": {
            "estimated_diameter_min": 0.0396192233,
            "estimated_diameter_max": 0.0885912765
        },
        "feet": {
            "estimated_diameter_min": 209.1895703015,
            "estimated_diameter_max": 467.7620993781
        }
    },
    "is_potentially_hazardous_asteroid": false,
    "close_approach_data": [
        {
            "close_approach_date": "2006-12-29",
            "close_approach_date_full": "2006-Dec-29 17:10",
            "epoch_date_close_approach": 1167412200000,
            "relative_velocity": {
                "kilometers_per_second": "10.3800128428",
                "kilometers_per_hour": "37368.0462340242",
                "miles_per_hour": "23219.0507280246"
            },
            "miss_distance": {
                "astronomical": "0.0505711502",
                "lunar": "19.6721774278",
                "kilometers": "7565336.353370074",
                "miles": "4700882.0271880612"
            },
            "orbiting_body": "Earth"
        },
        {
            "close_approach_date": "2100-12-28",
            "close_approach_date_full": "2100-Dec-28 12:53",
            "epoch_date_close_approach": 4133681580000,
            "relative_velocity": {
                "kilometers_per_second": "10.6716689702",
                "kilometers_per_hour": "38418.0082926304",
                "miles_per_hour": "23871.4563193847"
            },
            "miss_distance": {
                "astronomical": "0.0503248542",
                "lunar": "19.5763682838",
                "kilometers": "7528490.996380554",
                "miles": "4677987.3839934852"
            },
            "orbiting_body": "Earth"
        },
        {
            "close_approach_date": "2117-02-03",
            "close_approach_date_full": "2117-Feb-03 01:27",
            "epoch_date_close_approach": 4641758820000,
            "relative_velocity": {
                "kilometers_per_second": "11.3717376317",
                "kilometers_per_hour": "40938.2554741135",
                "miles_per_hour": "25437.4399083457"
            },
            "miss_distance": {
                "astronomical": "0.2740183075",
                "lunar": "106.5931216175",
                "kilometers": "40992555.143005025",
                "miles": "25471592.632418345"
            },
            "orbiting_body": "Earth"
        }
    ],
    "orbital_data": {
        "orbit_id": "18",
        "orbit_determination_date": "2017-04-06 09:07:20",
        "first_observation_date": "2006-12-16",
        "last_observation_date": "2007-01-05",
        "data_arc_in_days": 20,
        "observations_used": 101,
        "orbit_uncertainty": "7",
        "minimum_orbit_intersection": ".0471999",
        "jupiter_tisserand_invariant": "4.003",
        "epoch_osculation": "2459000.5",
        "eccentricity": ".4246625970157366",
        "semi_major_axis": "1.73799248150882",
        "inclination": "15.44424673684016",
        "ascending_node_longitude": "92.17206890617388",
        "orbital_period": "836.8936390285767",
        "perihelion_distance": ".9999320807174598",
        "perihelion_argument": "28.07618888403931",
        "aphelion_distance": "2.476052882300179",
        "perihelion_time": "2459142.491963779248",
        "mean_anomaly": "298.9204259936024",
        "mean_motion": ".4301621893289446",
        "equinox": "J2000",
        "orbit_class": {
            "orbit_class_type": "APO",
            "orbit_class_description": "Near-Earth asteroid orbits which cross the Earth’s orbit similar to that of 1862 Apollo",
            "orbit_class_range": "a (semi-major axis) > 1.0 AU; q (perihelion) < 1.017 AU"
        }
    },
    "is_sentry_object": false
}